OBJECT_NAME,OBJECT_ID,EPOCH,MEAN_MOTION,ECCENTRICITY,INCLINATION,RA_OF_ASC_NODE,ARG_OF_PERICENTER,MEAN_ANOMALY,EPHEMERIS_TYPE,CLASSIFICATION_TYPE,NORAD_CAT_ID,ELEMENT_SET_NO,REV_AT_EPOCH,BSTAR,MEAN_MOTION_DOT,MEAN_MOTION_DDOT
EYESAT A (AO-27),1993-061C,2026-06-26T03:50:14.762976,14.30944439,.0009507,98.6877,244.5701,76.6745,283.5497,0,U,22825,999,70828,.49164E-4,.85E-6,0
ITAMSAT (IO-26),1993-061D,2026-06-25T17:12:47.039040,14.31371492,.0009906,98.6824,244.0459,62.8375,297.3817,0,U,22826,999,70853,.48755E-4,.85E-6,0
RADIO ROSTO (RS15),1994-085A,2026-06-25T23:38:14.483040,11.27583444,.0156239,64.8184,288.9880,2.2471,357.9123,0,U,23439,999,29689,-.35815E-3,-.55E-6,0
JAS-2 (FO-29),1996-046B,2026-06-26T02:37:19.280352,13.53274757,.0350906,98.5233,24.7588,73.3487,290.5866,0,U,24278,999,47437,.17983E-4,-.15E-6,0
FORTE,1997-047A,2026-06-25T20:25:24.561408,14.27948259,.0024633,69.9540,354.4509,266.8571,92.9733,0,U,24920,999,49992,.87338E-4,.159E-5,0
TECHSAT 1B (GO-32),1998-043D,2026-06-25T23:38:45.281184,14.24429963,.0001499,99.0071,169.9659,146.3485,213.7789,0,U,25397,999,45258,.45556E-4,.59E-6,0
ISS (ZARYA),1998-067A,2026-06-26T03:43:15.671136,15.49434803,.0004359,51.6325,255.7018,233.1468,126.9121,0,U,25544,999,57314,.17697E-3,.9461E-4,0
IMAGE,2000-017A,2026-06-21T10:12:18.318528,1.68666410,.74289842,94.2324,315.4279,287.3239,9.1864,0,U,26113,999,16157,0,-.86E-6,0
CLUSTER II-FM7 (SAMBA),2000-041A,2026-06-26T01:33:12.192480,0.44870397,.90618129,149.9012,52.3742,269.6784,359.6419,0,U,26410,999,2035,0,.5882E-4,0
CLUSTER II-FM8 (TANGO),2000-045B,2026-06-21T22:36:54.211968,0.44420336,.90628137,150.1352,52.7746,269.8657,2.6673,0,U,26464,999,2033,0,.4849E-4,0
ODIN,2001-007A,2026-06-26T02:28:47.730144,15.79099744,.0006231,97.3805,218.6358,132.7995,227.3797,0,U,26702,999,39080,.13083E-2,.238419E-2,0
OMNI-M1,2001-026A,2026-06-26T03:30:26.091648,3.92401945,.0013957,44.8280,243.1988,55.2006,304.9925,0,U,26857,999,20592,0,.2E-7,0
PCSAT (NO-44),2001-043C,2026-06-26T04:03:52.791264,14.31958797,.000604,67.0493,221.0400,265.0917,94.9495,0,U,26931,999,29173,.63208E-4,.86E-6,0
PROBA-1,2001-049B,2026-06-26T05:31:28.475616,15.07535164,.0056389,97.9604,186.0778,92.2696,268.4989,0,U,26958,999,34498,.24715E-3,.3822E-4,0
SAUDISAT 1C (SO-50),2002-058C,2026-06-26T02:58:11.680320,14.83064330,.0075052,64.5520,101.3361,260.8049,98.4562,0,U,27607,999,26578,.12242E-3,.891E-5,0
CORIOLIS,2003-001A,2026-06-26T00:07:38.682048,14.19947094,.0013892,98.7126,183.7554,182.6895,177.4209,0,U,27640,999,21547,.66448E-4,.98E-6,0
CUTE-1 (CO-55),2003-031E,2026-06-25T23:00:28.348416,14.24340671,.0010067,98.6736,185.4073,153.3060,206.8639,0,U,27844,999,19292,.13913E-3,.278E-5,0
CUBESAT XI-IV (CO-57),2003-031J,2026-06-25T22:50:11.463648,14.23625133,.0009591,98.6767,185.1059,171.2745,188.8601,0,U,27848,999,19262,.12262E-3,.236E-5,0
MOZHAETS 4 (RS22),2003-042A,2026-06-26T04:32:57.558912,14.73482348,.0010008,98.3474,1.8029,237.5087,256.0760,0,U,27939,999,21687,.18861E-3,.1172E-4,0
SAUDISAT 2,2004-025F,2026-06-25T23:00:18.641376,14.56688467,.0023442,98.5508,177.1672,269.9228,89.9283,0,U,28371,999,16702,.64876E-4,.241E-5,0
